[
    {
        "Altitude(m)": 703595.8926653247,
        "Argument of Periapsis(deg)": 0.004556048474650827,
        "Eccentricity": 0.0,
        "Inclination(deg)": 45.0,
        "Latitude(deg)": 25.485274771226084,
        "Longitude(deg)": -56.990359065508244,
        "Mean Anomaly(deg)": 37.34058665899232,
        "RAAN(deg)": 14.995699223416718,
        "Satellite Name": "Constellation 1 68",
        "Satellite Number": 68,
        "Semi-Major Axis(m)": 7083131.272910544,
        "Time(s)": 76
    },
    {
        "Altitude(m)": 703600.8134504636,
        "Argument of Periapsis(deg)": 0.004615996480896233,
        "Eccentricity": 0.0,
        "Inclination(deg)": 45.0,
        "Latitude(deg)": 25.523262101734726,
        "Longitude(deg)": -56.941901610697506,
        "Mean Anomaly(deg)": 37.401287799242226,
        "RAAN(deg)": 14.995642634251148,
        "Satellite Name": "Constellation 1 68",
        "Satellite Number": 68,
        "Semi-Major Axis(m)": 7083131.272910544,
        "Time(s)": 77
    },
    {
        "Altitude(m)": 703605.743264223,
        "Argument of Periapsis(deg)": 0.004675944487141638,
        "Eccentricity": 0.0,
        "Inclination(deg)": 45.0,
        "Latitude(deg)": 25.561230381498167,
        "Longitude(deg)": -56.89341106543906,
        "Mean Anomaly(deg)": 37.46198893949212,
        "RAAN(deg)": 14.99558604508558,
        "Satellite Name": "Constellation 1 68",
        "Satellite Number": 68,
        "Semi-Major Axis(m)": 7083131.272910544,
        "Time(s)": 78
    },
    {
        "Altitude(m)": 703610.6820692606,
        "Argument of Periapsis(deg)": 0.004735892493387044,
        "Eccentricity": 0.0,
        "Inclination(deg)": 45.0,
        "Latitude(deg)": 25.59917956652462,
        "Longitude(deg)": -56.844887369068516,
        "Mean Anomaly(deg)": 37.52269007974202,
        "RAAN(deg)": 14.995529455920007,
        "Satellite Name": "Constellation 1 68",
        "Satellite Number": 68,
        "Semi-Major Axis(m)": 7083131.272910544,
        "Time(s)": 79
    },
    {
        "Altitude(m)": 703615.6298282164,
        "Argument of Periapsis(deg)": 0.004795840499632449,
        "Eccentricity": 0.0,
        "Inclination(deg)": 45.0,
        "Latitude(deg)": 25.63710961275788,
        "Longitude(deg)": -56.79633046092028,
        "Mean Anomaly(deg)": 37.583391219991924,
        "RAAN(deg)": 14.99547286675444,
        "Satellite Name": "Constellation 1 68",
        "Satellite Number": 68,
        "Semi-Major Axis(m)": 7083131.272910544,
        "Time(s)": 80
    },
    {
        "Altitude(m)": 703620.5865036899,
        "Argument of Periapsis(deg)": 0.004855788505877855,
        "Eccentricity": 0.0,
        "Inclination(deg)": 45.0,
        "Latitude(deg)": 25.675020476077314,
        "Longitude(deg)": -56.74774028032802,
        "Mean Anomaly(deg)": 37.64409236024182,
        "RAAN(deg)": 14.995416277588872,
        "Satellite Name": "Constellation 1 68",
        "Satellite Number": 68,
        "Semi-Major Axis(m)": 7083131.272910544,
        "Time(s)": 81
    },
    {
        "Altitude(m)": 703625.5520582579,
        "Argument of Periapsis(deg)": 0.00491573651212326,
        "Eccentricity": 0.0,
        "Inclination(deg)": 45.0,
        "Latitude(deg)": 25.71291211229757,
        "Longitude(deg)": -56.69911693472183,
        "Mean Anomaly(deg)": 37.70479350049172,
        "RAAN(deg)": 14.9953596884233,
        "Satellite Name": "Constellation 1 68",
        "Satellite Number": 68,
        "Semi-Major Axis(m)": 7083131.272910544,
        "Time(s)": 82
    },
    {
        "Altitude(m)": 703630.5264544701,
        "Argument of Periapsis(deg)": 0.004975684518368666,
        "Eccentricity": 0.0,
        "Inclination(deg)": 45.0,
        "Latitude(deg)": 25.750784477169113,
        "Longitude(deg)": -56.650460027241074,
        "Mean Anomaly(deg)": 37.76549464074162,
        "RAAN(deg)": 14.99530309925773,
        "Satellite Name": "Constellation 1 68",
        "Satellite Number": 68,
        "Semi-Major Axis(m)": 7083131.272910544,
        "Time(s)": 83
    },
    {
        "Altitude(m)": 703635.509654853,
        "Argument of Periapsis(deg)": 0.005035632524614072,
        "Eccentricity": 0.0,
        "Inclination(deg)": 45.0,
        "Latitude(deg)": 25.788637526377126,
        "Longitude(deg)": -56.60176966531599,
        "Mean Anomaly(deg)": 37.82619578099152,
        "RAAN(deg)": 14.99524651009216,
        "Satellite Name": "Constellation 1 68",
        "Satellite Number": 68,
        "Semi-Major Axis(m)": 7083131.272910544,
        "Time(s)": 84
    },
    {
        "Altitude(m)": 703640.5016219001,
        "Argument of Periapsis(deg)": 0.0050955805308594785,
        "Eccentricity": 0.0,
        "Inclination(deg)": 45.0,
        "Latitude(deg)": 25.82647121554218,
        "Longitude(deg)": -56.553045788280535,
        "Mean Anomaly(deg)": 37.886896921241416,
        "RAAN(deg)": 14.995189920926592,
        "Satellite Name": "Constellation 1 68",
        "Satellite Number": 68,
        "Semi-Major Axis(m)": 7083131.272910544,
        "Time(s)": 85
    },
    {
        "Altitude(m)": 703645.5023180821,
        "Argument of Periapsis(deg)": 0.005155528537104883,
        "Eccentricity": 0.0,
        "Inclination(deg)": 45.0,
        "Latitude(deg)": 25.86428550021985,
        "Longitude(deg)": -56.50428833546957,
        "Mean Anomaly(deg)": 37.94759806149132,
        "RAAN(deg)": 14.995133331761023,
        "Satellite Name": "Constellation 1 68",
        "Satellite Number": 68,
        "Semi-Major Axis(m)": 7083131.272910544,
        "Time(s)": 86
    },
    {
        "Altitude(m)": 703650.5117058412,
        "Argument of Periapsis(deg)": 0.0052154765433502885,
        "Eccentricity": 0.0,
        "Inclination(deg)": 45.0,
        "Latitude(deg)": 25.902080335900678,
        "Longitude(deg)": -56.45549724621908,
        "Mean Anomaly(deg)": 38.00829920174122,
        "RAAN(deg)": 14.995076742595453,
        "Satellite Name": "Constellation 1 68",
        "Satellite Number": 68,
        "Semi-Major Axis(m)": 7083131.272910544,
        "Time(s)": 87
    },
    {
        "Altitude(m)": 703655.5297475905,
        "Argument of Periapsis(deg)": 0.005275424549595694,
        "Eccentricity": 0.0,
        "Inclination(deg)": 45.0,
        "Latitude(deg)": 25.93985567801009,
        "Longitude(deg)": -56.40667245986687,
        "Mean Anomaly(deg)": 38.069000341991114,
        "RAAN(deg)": 14.995020153429884,
        "Satellite Name": "Constellation 1 68",
        "Satellite Number": 68,
        "Semi-Major Axis(m)": 7083131.272910544,
        "Time(s)": 88
    },
    {
        "Altitude(m)": 703660.5564057261,
        "Argument of Periapsis(deg)": 0.0053353725558411,
        "Eccentricity": 0.0,
        "Inclination(deg)": 45.0,
        "Latitude(deg)": 25.97761148190806,
        "Longitude(deg)": -56.35781408384955,
        "Mean Anomaly(deg)": 38.12970148224102,
        "RAAN(deg)": 14.994963564264312,
        "Satellite Name": "Constellation 1 68",
        "Satellite Number": 68,
        "Semi-Major Axis(m)": 7083131.272910544,
        "Time(s)": 89
    },
    {
        "Altitude(m)": 703665.591642608,
        "Argument of Periapsis(deg)": 0.005395320562086505,
        "Eccentricity": 0.0,
        "Inclination(deg)": 45.0,
        "Latitude(deg)": 26.015347702889773,
        "Longitude(deg)": -56.308921721315116,
        "Mean Anomaly(deg)": 38.190402622490915,
        "RAAN(deg)": 14.994906975098745,
        "Satellite Name": "Constellation 1 68",
        "Satellite Number": 68,
        "Semi-Major Axis(m)": 7083131.272910544,
        "Time(s)": 90
    },
    {
        "Altitude(m)": 703670.6354205761,
        "Argument of Periapsis(deg)": 0.00545526856833191,
        "Eccentricity": 0.0,
        "Inclination(deg)": 45.0,
        "Latitude(deg)": 26.053064296184434,
        "Longitude(deg)": -56.2599954797051,
        "Mean Anomaly(deg)": 38.25110376274082,
        "RAAN(deg)": 14.994850385933177,
        "Satellite Name": "Constellation 1 68",
        "Satellite Number": 68,
        "Semi-Major Axis(m)": 7083131.272910544,
        "Time(s)": 91
    },
    {
        "Altitude(m)": 703675.6877019393,
        "Argument of Periapsis(deg)": 0.005515216574577317,
        "Eccentricity": 0.0,
        "Inclination(deg)": 45.0,
        "Latitude(deg)": 26.090761216956025,
        "Longitude(deg)": -56.21103529836709,
        "Mean Anomaly(deg)": 38.311804902990716,
        "RAAN(deg)": 14.994793796767604,
        "Satellite Name": "Constellation 1 68",
        "Satellite Number": 68,
        "Semi-Major Axis(m)": 7083131.272910544,
        "Time(s)": 92
    },
    {
        "Altitude(m)": 703680.7484489885,
        "Argument of Periapsis(deg)": 0.005575164580822722,
        "Eccentricity": 0.0,
        "Inclination(deg)": 45.0,
        "Latitude(deg)": 26.128438420302775,
        "Longitude(deg)": -56.162041116652134,
        "Mean Anomaly(deg)": 38.37250604324061,
        "RAAN(deg)": 14.994737207602036,
        "Satellite Name": "Constellation 1 68",
        "Satellite Number": 68,
        "Semi-Major Axis(m)": 7083131.272910544,
        "Time(s)": 93
    },
    {
        "Altitude(m)": 703685.817623985,
        "Argument of Periapsis(deg)": 0.005635112587068129,
        "Eccentricity": 0.0,
        "Inclination(deg)": 45.0,
        "Latitude(deg)": 26.1660958612573,
        "Longitude(deg)": -56.11301287391484,
        "Mean Anomaly(deg)": 38.43320718349051,
        "RAAN(deg)": 14.994680618436465,
        "Satellite Name": "Constellation 1 68",
        "Satellite Number": 68,
        "Semi-Major Axis(m)": 7083131.272910544,
        "Time(s)": 94
    }
]